$$SOE
2461302.500000000, A.D. 2026-Sep-19 00:00:00.0000, -7.801958742065309E+07, 4.188098953691047E+08, -6.340333304976767E+07,
2461309.500000000, A.D. 2026-Sep-26 00:00:00.0000, -8.801692881928848E+07, 4.176181119426370E+08, -6.254787694427519E+07,
2461316.500000000, A.D. 2026-Oct-03 00:00:00.0000, -9.796119612761842E+07, 4.161737688648283E+08, -6.165455842395629E+07,
2461323.500000000, A.D. 2026-Oct-10 00:00:00.0000, -1.078466334153836E+08, 4.144788186151528E+08, -6.072407707283659E+07,
2461330.500000000, A.D. 2026-Oct-17 00:00:00.0000, -1.176675581804489E+08, 4.125353059313036E+08, -5.975714276806660E+07,
2461337.500000000, A.D. 2026-Oct-24 00:00:00.0000, -1.274183608573780E+08, 4.103453656793910E+08, -5.875447537622756E+07,
2461344.500000000, A.D. 2026-Oct-31 00:00:00.0000, -1.370935042169814E+08, 4.079112206904191E+08, -5.771680449432276E+07,
2461351.500000000, A.D. 2026-Nov-07 00:00:00.0000, -1.466875223239898E+08, 4.052351796340345E+08, -5.664486925946750E+07,
2461358.500000000, A.D. 2026-Nov-14 00:00:00.0000, -1.561950188584546E+08, 4.023196358144222E+08, -5.553941817233567E+07,
2461365.500000000, A.D. 2026-Nov-21 00:00:00.0000, -1.656106666185977E+08, 3.991670675692738E+08, -5.440120871211830E+07,
2461372.500000000, A.D. 2026-Nov-28 00:00:00.0000, -1.749292092062552E+08, 3.957800372615880E+08, -5.323100689635962E+07,
2461379.500000000, A.D. 2026-Dec-05 00:00:00.0000, -1.841454612790151E+08, 3.921611882020752E+08, -5.202958716915050E+07,
2461386.500000000, A.D. 2026-Dec-12 00:00:00.0000, -1.932543072102933E+08, 3.883132426105476E+08, -5.079773237764692E+07,
2461393.500000000, A.D. 2026-Dec-19 00:00:00.0000, -2.022507000476464E+08, 3.842390006213824E+08, -4.953623366262110E+07,
2461400.500000000, A.D. 2026-Dec-26 00:00:00.0000, -2.111296609136110E+08, 3.799413394600809E+08, -4.824589031911948E+07,
2461407.500000000, A.D. 2027-Jan-02 00:00:00.0000, -2.198862785772211E+08, 3.754232125939432E+08, -4.692750966628142E+07,
2461414.500000000, A.D. 2027-Jan-09 00:00:00.0000, -2.285157090852071E+08, 3.706876488723311E+08, -4.558190693423490E+07,
2461421.500000000, A.D. 2027-Jan-16 00:00:00.0000, -2.370131754241007E+08, 3.657377516626310E+08, -4.420990517010732E+07,
2461428.500000000, A.D. 2027-Jan-23 00:00:00.0000, -2.453739671730310E+08, 3.605766979406882E+08, -4.281233517037305E+07,
2461435.500000000, A.D. 2027-Jan-30 00:00:00.0000, -2.535934399640799E+08, 3.552077372859209E+08, -4.139003546023193E+07,
2461442.500000000, A.D. 2027-Feb-06 00:00:00.0000, -2.616670143296511E+08, 3.496341911178682E+08, -3.994385233047163E+07,
2461449.500000000, A.D. 2027-Feb-13 00:00:00.0000, -2.695901744023173E+08, 3.438594533901246E+08, -3.847463978928697E+07,
2461456.500000000, A.D. 2027-Feb-20 00:00:00.0000, -2.773584688367689E+08, 3.378869919485248E+08, -3.698325927675310E+07,
2461463.500000000, A.D. 2027-Feb-27 00:00:00.0000, -2.849675125608196E+08, 3.317203473374241E+08, -3.547057953204741E+07,
2461470.500000000, A.D. 2027-Mar-06 00:00:00.0000, -2.924129863402027E+08, 3.253631309710194E+08, -3.393747673184919E+07,
2461477.500000000, A.D. 2027-Mar-13 00:00:00.0000, -2.996906357635458E+08, 3.188190247163622E+08, -3.238483458548866E+07,
2461484.500000000, A.D. 2027-Mar-20 00:00:00.0000, -3.067962707812414E+08, 3.120917810531867E+08, -3.081354435154408E+07,
2461491.500000000, A.D. 2027-Mar-27 00:00:00.0000, -3.137257655983984E+08, 3.051852232597365E+08, -2.922450483866307E+07,
2461498.500000000, A.D. 2027-Apr-03 00:00:00.0000, -3.204750587212994E+08, 2.981032455738650E+08, -2.761862241228960E+07,
2461505.500000000, A.D. 2027-Apr-10 00:00:00.0000, -3.270401530988267E+08, 2.908498133493948E+08, -2.599681101024218E+07,
2461512.500000000, A.D. 2027-Apr-17 00:00:00.0000, -3.334171163396490E+08, 2.834289631904178E+08, -2.435999216958570E+07,
2461519.500000000, A.D. 2027-Apr-24 00:00:00.0000, -3.396020809288374E+08, 2.758448029983846E+08, -2.270909507639819E+07,
2461526.500000000, A.D. 2027-May-01 00:00:00.0000, -3.455912441471133E+08, 2.681015119567060E+08, -2.104505666287957E+07,
2461533.500000000, A.D. 2027-May-08 00:00:00.0000, -3.513808673882822E+08, 2.602033411979155E+08, -1.936882171807536E+07,
2461540.500000000, A.D. 2027-May-15 00:00:00.0000, -3.569672763757327E+08, 2.521546161036920E+08, -1.768134279642297E+07,
2461547.500000000, A.D. 2027-May-22 00:00:00.0000, -3.623468638464855E+08, 2.439597376447428E+08, -1.598357999213949E+07,
2461554.500000000, A.D. 2027-May-29 00:00:00.0000, -3.675160913482119E+08, 2.356231812905245E+08, -1.427650100632344E+07,
2461561.500000000, A.D. 2027-Jun-05 00:00:00.0000, -3.724714892651774E+08, 2.271494966151530E+08, -1.256108133067328E+07,
2461568.500000000, A.D. 2027-Jun-12 00:00:00.0000, -3.772096570855137E+08, 2.185433080269966E+08, -1.083830432782696E+07,
2461575.500000000, A.D. 2027-Jun-19 00:00:00.0000, -3.817272642455478E+08, 2.098093156850608E+08, -9.109161253901690E+06,
2461582.500000000, A.D. 2027-Jun-26 00:00:00.0000, -3.860210512746829E+08, 2.009522963382728E+08, -7.374651269353181E+06,
2461589.500000000, A.D. 2027-Jul-03 00:00:00.0000, -3.900878311114641E+08, 1.919771040923812E+08, -5.635781448594339E+06,
2461596.500000000, A.D. 2027-Jul-10 00:00:00.0000, -3.939244905571219E+08, 1.828886711092989E+08, -3.893566790046640E+06,
2461603.500000000, A.D. 2027-Jul-17 00:00:00.0000, -3.975279918336375E+08, 1.736920081960392E+08, -2.149030232133143E+06,
2461610.500000000, A.D. 2027-Jul-24 00:00:00.0000, -4.008953740934181E+08, 1.643922052163388E+08, -4.032026936730221E+05,
2461617.500000000, A.D. 2027-Jul-31 00:00:00.0000, -4.040237544726364E+08, 1.549944315561918E+08, 1.342876843888894E+06,
2461624.500000000, A.D. 2027-Aug-07 00:00:00.0000, -4.069103288925301E+08, 1.455039377903622E+08, 3.088161325997412E+06,
2461631.500000000, A.D. 2027-Aug-14 00:00:00.0000, -4.095523749144824E+08, 1.359260582920032E+08, 4.831595877536409E+06,
2461638.500000000, A.D. 2027-Aug-21 00:00:00.0000, -4.119472560356365E+08, 1.262662114184000E+08, 6.572117987735122E+06,
2461645.500000000, A.D. 2027-Aug-28 00:00:00.0000, -4.140924239941055E+08, 1.165298984731616E+08, 8.308657412450165E+06,
2461652.500000000, A.D. 2027-Sep-04 00:00:00.0000, -4.159854202624962E+08, 1.067227039398173E+08, 1.004013610797257E+07,
2461659.500000000, A.D. 2027-Sep-11 00:00:00.0000, -4.176238781265638E+08, 9.685029631605761E+07, 1.176546827109873E+07,
2461666.500000000, A.D. 2027-Sep-18 00:00:00.0000, -4.190055252200903E+08, 8.691842888990888E+07, 1.348356042081111E+07,
2461673.500000000, A.D. 2027-Sep-25 00:00:00.0000, -4.201281862923214E+08, 7.693294037235376E+07, 1.519331149507616E+07,
2461680.500000000, A.D. 2027-Oct-02 00:00:00.0000, -4.209897861386894E+08, 6.689975540695952E+07, 1.689361295913770E+07,
2461687.500000000, A.D. 2027-Oct-09 00:00:00.0000, -4.215883526775606E+08, 5.682488494584098E+07, 1.858334892409161E+07,
2461694.500000000, A.D. 2027-Oct-16 00:00:00.0000, -4.219220201135604E+08, 4.671442643084367E+07, 2.026139626687685E+07,
2461701.500000000, A.D. 2027-Oct-23 00:00:00.0000, -4.219890319298964E+08, 3.657456376709907E+07, 2.192662472893435E+07,
2461708.500000000, A.D. 2027-Oct-30 00:00:00.0000, -4.217877433362579E+08, 2.641156769086999E+07, 2.357789701067878E+07,
2461715.500000000, A.D. 2027-Nov-06 00:00:00.0000, -4.213166243367098E+08, 1.623179764988151E+07, 2.521406906232854E+07,
2461722.500000000, A.D. 2027-Nov-13 00:00:00.0000, -4.205742654056699E+08, 6.041703108774473E+06, 2.683399058522302E+07,
2461729.500000000, A.D. 2027-Nov-20 00:00:00.0000, -4.195593828741229E+08, -4.152177916414348E+06, 2.843650530088853E+07,
2461736.500000000, A.D. 2027-Nov-27 00:00:00.0000, -4.182708224089414E+08, -1.434322013980089E+07, 3.002045108398841E+07,
2461743.500000000, A.D. 2027-Dec-04 00:00:00.0000, -4.167075626069494E+08, -2.452471120160872E+07, 3.158466022140671E+07,
2461750.500000000, A.D. 2027-Dec-11 00:00:00.0000, -4.148687192549785E+08, -3.468985175674845E+07, 3.312795977113935E+07,
2461757.500000000, A.D. 2027-Dec-18 00:00:00.0000, -4.127535499829572E+08, -4.483175580860921E+07, 3.464917197034031E+07,
2461764.500000000, A.D. 2027-Dec-25 00:00:00.0000, -4.103614591586372E+08, -5.494345130331709E+07, 3.614711468086640E+07,
2461771.500000000, A.D. 2028-Jan-01 00:00:00.0000, -4.076920029815929E+08, -6.501788098373055E+07, 3.762060187220050E+07,
$$EOE